{
  "norad_id": 63751,
  "name": "STARLINK-11677 [DTC]",
  "history": [
    {
      "epoch": "2026-03-28T12:30:12.849984Z",
      "apogee_km": 356.7622492343562,
      "perigee_km": 355.94198845968094,
      "latitude_deg": 4.534591919572449e-06,
      "longitude_deg": 165.55992410631683,
      "height_km": 356.44027506409293,
      "semi_major_axis_km": 6734.489118847018,
      "eccentricity": 6.09e-05,
      "inclination_deg": 43.0018,
      "raan_deg": 179.0537,
      "arg_perigee_deg": 140.6739,
      "mean_anomaly_deg": 219.4173,
      "mean_motion_rev_day": 15.70890013
    },
    {
      "epoch": "2026-03-28T23:11:07.760256Z",
      "apogee_km": 358.16307290931854,
      "perigee_km": 354.21271792566677,
      "latitude_deg": 2.6918099358884935e-06,
      "longitude_deg": 2.2091383214995925,
      "height_km": 355.5754740440346,
      "semi_major_axis_km": 6734.324895417492,
      "eccentricity": 0.0002933,
      "inclination_deg": 43.001,
      "raan_deg": 176.3704,
      "arg_perigee_deg": 281.2728,
      "mean_anomaly_deg": 78.781,
      "mean_motion_rev_day": 15.70947475
    }
  ]
}